ONEWEB-0555             
1 56057U 23043M   25092.65289321 -.00000097  00000+0 -28703-3 0  9999
2 56057  87.9057 316.5906 0001660 104.6765 255.4550 13.16594511100994
ONEWEB-0557             
1 56058U 23043N   25092.66713769 -.00000016  00000+0 -75074-4 0  9994
2 56058  87.9054 316.6118 0002189 109.6050 250.5317 13.16593707100990
ONEWEB-0558             
1 56059U 23043P   25092.66245233  .00000028  00000+0  36698-4 0  9991
2 56059  87.9307 331.8255 0001650  64.8514 295.2791 13.21824411100045
ONEWEB-0559             
1 56060U 23043Q   25092.72709102 -.00003604  00000+0 -87608-2 0  9990
2 56060  87.9309 331.8061 0002062  67.8207 292.3145 13.21839215100065
ONEWEB-0566             
1 56061U 23043R   25092.64510876 -.00000014  00000+0 -66296-4 0  9994
2 56061  87.9305 331.8217 0001857  61.2943 298.8377 13.21826416100035
ONEWEB-0568             
1 56062U 23043S   25092.91254397  .00000153  00000+0  36639-3 0  9997
2 56062  87.9057 316.5282 0001594  92.5531 267.5783 13.16594152101959
ONEWEB-0574             
1 56063U 23043T   25092.71449114 -.00000032  00000+0 -10807-3 0  9996
2 56063  87.9306 331.7976 0001602  82.5286 277.6030 13.21823645100080
ONEWEB-0575             
1 56064U 23043U   25092.90620994  .00000143  00000+0  34091-3 0  9997
2 56064  87.9057 316.5420 0002032  95.4747 264.6616 13.16593739101946
ONEWEB-0576             
1 56065U 23043V   25092.65920040  .00002115  00000+0  54973-2 0  9996
2 56065  87.9055 316.5806 0001717  97.1534 262.9793 13.16612199100998
ONEWEB-0577             
1 56066U 23043W   25092.66555741 -.00000074  00000+0 -22638-3 0  9998
2 56066  87.9055 316.5813 0002233  97.4858 262.6527 13.16593023101024
ONEWEB-0578             
1 56067U 23043X   25092.70186878 -.00000285  00000+0 -72230-3 0  9992
2 56067  87.9308 331.8082 0001687  85.5804 274.5522 13.21823931100043
ONEWEB-0579             
1 56068U 23043Y   25092.69242315  .00000004  00000+0 -21624-4 0  9990
2 56068  87.9307 331.7985 0001946  73.0397 287.0950 13.21825389100055
ONEWEB-0581             
1 56069U 23043Z   25092.67188730 -.00000039  00000+0 -13471-3 0  9998
2 56069  87.9056 316.6107 0002169  86.5755 273.5624 13.16592825100991
ONEWEB-0609             
1 56070U 23043AA  25092.73576662 -.00000112  00000+0 -33198-3 0  9992
2 56070  87.9121 346.9781 0001726  75.6166 284.5156 13.15549215 98524
ONEWEB-0613             
1 56071U 23043AB  25092.73101218 -.00000103  00000+0 -30663-3 0  9998
2 56071  87.9126 346.9866 0001898  70.6253 289.5082 13.15549412 98528
ONEWEB-0630             
1 56072U 23043AC  25092.72625859 -.00000129  00000+0 -37645-3 0  9995
2 56072  87.9122 346.9677 0001830  68.3585 291.7741 13.15547879 98514
ONEWEB-0632             
1 56073U 23043AD  25092.72151226 -.00000104  00000+0 -31157-3 0  9993
2 56073  87.9123 346.9882 0002036  79.8968 280.2391 13.15549124 98514
ONEWEB-0633             
1 56074U 23043AE  25092.71516886 -.00000092  00000+0 -27838-3 0  9997
2 56074  87.9119 346.9601 0001720  63.1380 296.9926 13.15548482 98493
ONEWEB-0634             
1 56075U 23043AF  25092.70089900  .00000064  00000+0  13580-3 0  9995
2 56075  87.9126 346.9931 0001367  74.7204 285.4077 13.15550182 98487
ONEWEB-0635             
1 56076U 23043AG  25092.69615478  .00000102  00000+0  23812-3 0  9991
2 56076  87.9097 347.0004 0002073  82.8821 277.2545 13.15548292 98510
ONEWEB-0636             
1 56077U 23043AH  25092.46005205  .00000186  00000+0  45968-3 0  9996
2 56077  87.9105 347.0502 0002015  81.9573 278.1786 13.15550581 98469
ONEWEB-0637             
1 56078U 23043AJ  25092.75794151  .00000058  00000+0  11920-3 0  9993
2 56078  87.9123 346.9810 0001806  89.3288 270.8049 13.15551628 98523
ONEWEB-0647             
1 56079U 23043AK  25092.75319113 -.00000011  00000+0 -63312-4 0  9999
2 56079  87.9120 346.9933 0001948  76.4213 283.7134 13.15550282 98511
ONEWEB-0651             
1 56080U 23043AL  25092.74844553 -.00000050  00000+0 -16610-3 0  9992
2 56080  87.9122 346.9799 0001955  87.1895 272.9459 13.15548044 99714
ONEWEB-0718             
1 56081U 23043AM  25092.74369193 -.00000098  00000+0 -29328-3 0  9997
2 56081  87.9123 346.9650 0001254  79.8326 280.2946 13.15549748 98524
ONEWEB-0561             
1 56710U 23068A   25092.82355572 -.00000002  00000+0 -37687-4 0  9991
2 56710  87.9320   2.1305 0002382  81.5683 278.5720 13.20772180 92077
ONEWEB-0668             
1 56711U 23068B   25092.90223618  .00000186  00000+0  45302-3 0  9999
2 56711  87.9047 316.5235 0001199  97.0087 263.1181 13.16596948 94549
ONEWEB-0676             
1 56712U 23068C   25092.65447697 -.00000067  00000+0 -20947-3 0  9995
2 56712  87.9055 316.5998 0002220  84.9513 275.1872 13.16594600 93733
ONEWEB-0677             
1 56713U 23068D   25092.81249786 -.00000057  00000+0 -17219-3 0  9990
2 56713  87.9326   2.1058 0001951  86.4848 273.6508 13.20769670 91674
ONEWEB-0678             
1 56714U 23068E   25092.71199974 -.00000065  00000+0 -20548-3 0  9991
2 56714  87.9127 346.9405 0001933  68.7262 291.4075 13.15548087 91377
ONEWEB-0679             
1 56715U 23068F   25092.62359748  .00000013  00000+0  11008-5 0  9993
2 56715  87.9053 316.6005 0001824 102.0968 258.0367 13.16593841 93756
ONEWEB-0680             
1 56716U 23068G   25092.69555993 -.00000465  00000+0 -11563-2 0  9997
2 56716  87.9287 331.8191 0001295 102.6418 257.4861 13.21824879 92901
ONEWEB-0681             
1 56717U 23068H   25092.70582359 -.00000088  00000+0 -24546-3 0  9993
2 56717  87.9307 331.8274 0002611  94.2487 265.8945 13.21824727 92898
ONEWEB-0682             
1 56718U 23068J   25092.73815897 -.00000134  00000+0 -38885-3 0  9996
2 56718  87.9122 346.9687 0001505  95.1512 264.9791 13.15549854 91547
ONEWEB-0683             
1 56719U 23068K   25092.68347771  .00000107  00000+0  25066-3 0  9997
2 56719  87.9123 346.9507 0001483  85.7807 274.3493 13.15547830 91509
ONEWEB-0684             
1 56720U 23068L   25092.76745887  .00000165  00000+0  40347-3 0  9991
2 56720  87.9096 346.9711 0002132  35.8498 324.2775 13.15547824 91344
ONEWEB-0686             
1 56721U 23068M   25092.68930325  .00000059  00000+0  12036-3 0  9992
2 56721  87.9054 316.6241 0001359  82.2114 277.9172 13.16593522 93751
ONEWEB-0694             
1 56722U 23068N   25092.65605587 -.00000050  00000+0 -16347-3 0  9991
2 56722  87.9050 316.5491 0001465  96.5952 263.5346 13.16593864 93809
ONEWEB-0696             
1 56723U 23068P   25092.72467078 -.00000332  00000+0 -91493-3 0  9999
2 56723  87.9122 346.9946 0001953  70.1533 289.9808 13.15547916 91457
ONEWEB-0703             
1 56724U 23068Q   25092.73418389 -.00000103  00000+0 -30694-3 0  9994
2 56724  87.9106 347.0034 0002794  66.3014 293.8409 13.15548244 91349
ONEWEB-0721             
1 56725U 23068R   25092.87303236  .00000088  00000+0  17640-3 0  9990
2 56725  86.6804 225.8092 0001705 104.7421 255.3901 13.22430385100444
ONEWEB-0015             
1 61594U 24188A   25092.73060512  .00004043  00000+0  98575-2 0  9996
2 61594  87.8894 108.9189 0005883  93.6911 266.4895 13.21112412 26714
ONEWEB-0687             
1 61595U 24188B   25092.91668981 -.01018586  00000+0 -22170+0 0  9996
2 61595  86.7520  99.9639 0006015  28.9919 223.5831 14.61187889 25645
ONEWEB-0688             
1 61596U 24188C   25092.91668981 -.00956991  00000+0 -19632+0 0  9996
2 61596  86.7420  99.9548 0005606  44.9935 282.4304 14.63674912 25420
ONEWEB-0689             
1 61597U 24188D   25092.91668981  .00000013  00000+0  00000+0 0  9999
2 61597  87.9216 108.8640 0004207  46.0240 308.9038 13.24343109 24860
ONEWEB-0690             
1 61598U 24188E   25092.91668981  .00000014  00000+0  00000+0 0  9991
2 61598  87.9667 108.8002 0009034  50.2911 137.6137 13.54009231 25000
ONEWEB-0691             
1 61599U 24188F   25092.83335648  .00000013  00000+0  00000+0 0  9993
2 61599  87.9164 108.8715 0006191  32.1201 144.2666 13.24607222  5400
ONEWEB-0692             
1 61600U 24188G   25092.91668981  .00000013  00000+0  00000+0 0  9994
2 61600  87.9160 108.8612 0004985  62.0458 126.0535 13.24643196 24965
ONEWEB-0693             
1 61601U 24188H   25092.91668981 -.00989850  00000+0 -23051+0 0  9993
2 61601  86.7723  99.8826 0005061  62.4000  51.1641 14.58025747 25586
ONEWEB-0695             
1 61602U 24188J   25092.91668981  .00000013  00000+0  00000+0 0  9996
2 61602  87.8882 108.8559 0004290  57.8519 358.3701 13.26361634 24990
ONEWEB-0697             
1 61603U 24188K   25092.91668981  .00000013  00000+0  00000+0 0  9997
2 61603  87.9134 108.8604 0003610  85.1795  59.3546 13.24706838 25003
ONEWEB-0698             
1 61604U 24188L   25092.91668981  .00000013  00000+0  00000+0 0  9998
2 61604  87.8997 108.8658 0006208  45.4753 184.4894 13.25794523 24787
ONEWEB-0699             
1 61605U 24188M   25092.63274530 -.00000123  00000+0 -38761-3 0  9994
2 61605  87.8802 124.0882 0001816  80.9898 279.1435 13.10369157 25617
ONEWEB-0700             
1 61606U 24188N   25092.63438055 -.00000225  00000+0 -68001-3 0  9992
2 61606  87.8718 124.0653 0001281 107.8500 252.2767 13.10366035 25606
ONEWEB-0701             
1 61607U 24188P   25092.57464543 -.00000604  00000+0 -17665-2 0  9997
2 61607  87.8810 124.1067 0001199  77.9230 282.2032 13.10370870 25605
ONEWEB-0702             
1 61608U 24188Q   25092.91668981  .00000013  00000+0  00000+0 0  9992
2 61608  87.9217 108.8819 0007962  49.3491 256.1388 13.24507964 24848
ONEWEB-0704             
1 61609U 24188R   25092.63937384 -.00000426  00000+0 -12577-2 0  9993
2 61609  87.8833 124.0030 0000953 102.3650 257.7584 13.10369957 25598
ONEWEB-0705             
1 61610U 24188S   25092.64436813 -.00000924  00000+0 -26847-2 0  9995
2 61610  87.8794 124.0892 0001569 133.3743 226.7515 13.10368428 17765
ONEWEB-0706             
1 61611U 24188T   25092.61989940 -.00000012  00000+0 -58925-4 0  9999
2 61611  87.9291 124.0918 0002494 122.4184 237.7192 13.23003648 25670
